APRIZESAT 2             
1 28366U 04025A   26183.45322085  .00000262  00000+0  94372-4 0  9993
2 28366  98.1028 348.5704 0105065 203.3510 156.2888 14.38042740153838
SAUDICOMSAT 1           
1 28369U 04025D   26183.27781955  .00000433  00000+0  11025-3 0  9994
2 28369  98.5771 193.8164 0031651 339.4884  20.5040 14.55485884166325
SAUDICOMSAT 2           
1 28370U 04025E   26183.51356245  .00000274  00000+0  82103-4 0  9992
2 28370  98.6639 196.1932 0054778 212.2838 147.4998 14.49989407162322
APRIZESAT 1             
1 28372U 04025G   26182.97492777  .00000299  00000+0  85480-4 0  9992
2 28372  98.6303 194.1029 0045705 109.8102 250.8029 14.51785626164058
NANOSAT-1               
1 28493U 04049B   26183.64959796  .00001228  00000+0  16890-3 0  9997
2 28493  98.2297 320.6903 0002935 230.9421 129.1529 14.80190945157731
SAUDICOMSAT 7           
1 31119U 07012C   26183.46864780  .00000631  00000+0  12172-3 0  9993
2 31119  98.3787 157.9137 0056356 147.4421 213.0278 14.66125643 24670
SAUDICOMSAT 6           
1 31121U 07012E   26183.41481540  .00000562  00000+0  11726-3 0  9997
2 31121  98.4106 151.2154 0070396 279.6451  79.6803 14.62575233 22416
SAUDICOMSAT 5           
1 31124U 07012H   26183.42071529  .00000856  00000+0  15527-3 0  9992
2 31124  98.3498 158.6085 0048717  78.0429 282.6231 14.68177982 25839
SAUDICOMSAT 3           
1 31125U 07012J   26182.87856928  .00000971  00000+0  16617-3 0  9994
2 31125  98.3151 158.6026 0039289   7.6291 352.5504 14.70731524 26988
SAUDICOMSAT 4           
1 31127U 07012L   26183.45890695  .00000495  00000+0  10068-3 0  9995
2 31127  98.3992 156.3415 0062679 209.6916 150.0723 14.64526261 23521
APRIZESAT 4             
1 35684U 09041D   26183.15936325  .00000764  00000+0  97714-4 0  9992
2 35684  98.1409 258.7781 0041886 273.0980  86.5440 14.83899214913585
APRIZESAT 3             
1 35686U 09041F   26183.41306594  .00001142  00000+0  10321-3 0  9991
2 35686  98.2079 337.3679 0061954  17.8288 342.5086 14.96282102918654
S-NET D                 
1 43186U 18014G   26183.37171075  .00005873  00000+0  30203-3 0  9990
2 43186  97.5349  88.0679 0007245 338.4300  21.6627 15.16815290461067
S-NET B                 
1 43187U 18014H   26183.25151886  .00005527  00000+0  28467-3 0  9991
2 43187  97.5354  87.9355 0007701 333.1236  26.9597 15.16784336461048
S-NET A                 
1 43188U 18014J   26183.30453556  .00005847  00000+0  30065-3 0  9999
2 43188  97.5364  88.1999 0007629 333.6682  26.4162 15.16822911461052
S-NET C                 
1 43189U 18014K   26183.25547208  .00005649  00000+0  29088-3 0  9995
2 43189  97.5384  88.2280 0008766 324.1062  35.9581 15.16776471459594
SALSAT                  
1 46495U 20068K   26183.25417133  .00008637  00000+0  29987-3 0  9991
2 46495  97.8847 187.2381 0008037 243.7769 116.2645 15.30013367317666
OOV-CUBE (TUBSAT-30)    
1 60240U 24128F   26183.55879411  .00002304  00000+0  18357-3 0  9994
2 60240  61.9934 171.9698 0042694 137.1235 223.3199 15.02830240108423
LPNTSAT-001 (IOD-1)     
1 68408U 26065A   26182.63918262  .00002801  00000+0  13827-3 0  9995
2 68408  97.3999  62.8427 0015215 318.8569  41.1518 15.18610529 14459
